stk.v.8.0

BEGIN Ephemeris

NumberOfEphemerisPoints 302
CoordinateSystem Custom Body Satellite/Origin

EphemerisTimePosVel

141.000000 -19.092191 -1.396047 4.869688 -0.114059 0.124043 -0.073372
142.000000 -19.206250 -1.272003 4.796316 -0.108634 0.124602 -0.052972
143.000000 -19.314884 -1.147401 4.743345 -0.088646 0.126261 -0.058120
144.000000 -19.403530 -1.021140 4.685225 -0.066891 0.106771 -0.061633
145.000000 -19.470421 -0.914369 4.623592 -0.042007 0.110672 -0.046245
146.000000 -19.512428 -0.803697 4.577348 -0.040838 0.089847 -0.045051
147.000000 -19.553266 -0.713850 4.532296 -0.038936 0.069068 -0.044114
148.000000 -19.592202 -0.644782 4.488182 -0.039113 0.048187 -0.043311
149.000000 -19.631314 -0.596595 4.444872 -0.039212 0.048187 -0.043204
150.000000 -19.670526 -0.548408 4.401668 -0.039310 0.048188 -0.043097
151.000000 -19.709837 -0.500220 4.358570 -0.034993 0.047638 -0.022576
152.000000 -19.744830 -0.452582 4.335994 -0.035045 0.047638 -0.022479
153.000000 -19.779875 -0.404944 4.313515 -0.035096 0.047639 -0.022382
154.000000 -19.814971 -0.357305 4.291133 -0.013941 0.027244 -0.025017
155.000000 -19.828912 -0.330061 4.266117 -0.013998 0.027244 -0.024968
156.000000 -19.842910 -0.302816 4.241149 -0.014055 0.027245 -0.024919
157.000000 -19.856965 -0.275571 4.216229 -0.014112 0.027245 -0.024871
158.000000 -19.871077 -0.248326 4.191359 -0.014169 0.027246 -0.024822
159.000000 -19.885245 -0.221081 4.166536 -0.014225 0.027246 -0.024774
160.000000 -19.899471 -0.193835 4.141763 -0.014282 0.027246 -0.024725
161.000000 -19.913753 -0.166589 4.117038 -0.014338 0.027246 -0.024676
162.000000 -19.928091 -0.139342 4.092361 -0.014395 0.027246 -0.024628
163.000000 -19.942486 -0.112096 4.067734 -0.010051 0.027697 -0.004157
164.000000 -19.952536 -0.084399 4.063576 -0.009885 0.006804 -0.003930
165.000000 -19.962421 -0.077595 4.059646 -0.009894 0.006804 -0.003891
166.000000 -19.972315 -0.070792 4.055755 -0.009903 0.006804 -0.003853
167.000000 -19.982218 -0.063988 4.051902 -0.009912 0.006804 -0.003814
168.000000 -19.992129 -0.057184 4.048088 -0.009920 0.006804 -0.003776
169.000000 -20.002049 -0.050380 4.044312 -0.009929 0.006804 -0.003738
170.000000 -20.011978 -0.043576 4.040574 -0.009937 0.006804 -0.003699
171.000000 -20.021916 -0.036772 4.036875 -0.009946 0.006804 -0.003661
172.000000 -20.031862 -0.029968 4.033214 -0.009954 0.006804 -0.003622
173.000000 -20.041816 -0.023163 4.029592 -0.009962 0.006804 -0.003584
174.000000 -20.051778 -0.016359 4.026009 -0.009971 0.006804 -0.003545
175.000000 -20.061749 -0.009555 4.022463 -0.009979 0.006804 -0.003507
176.000000 -20.071728 -0.002751 4.018957 -0.009987 0.006804 -0.003468
177.000000 -20.081715 0.004053 4.015488 -0.009995 0.006804 -0.003430
178.000000 -20.091709 0.010858 4.012059 -0.010003 0.006804 -0.003391
179.000000 -20.101712 0.017662 4.008667 -0.010010 0.006804 -0.003353
180.000000 -20.111722 0.024466 4.005315 -0.010018 0.006804 -0.003314
181.000000 -20.121740 0.031270 4.002001 -0.010025 0.006804 -0.003276
182.000000 -20.131765 0.038074 3.998725 -0.010033 0.006804 -0.003237
183.000000 -20.141798 0.044879 3.995488 -0.010040 0.006804 -0.003199
184.000000 -20.151839 0.051683 3.992289 -0.010048 0.006804 -0.003160
185.000000 -20.161886 0.058487 3.989129 0.010421 0.006756 -0.007287
186.000000 -20.151465 0.065243 3.981842 0.010405 0.006756 -0.007295
187.000000 -20.141061 0.071999 3.974547 0.010388 0.006756 -0.007304
188.000000 -20.130673 0.078755 3.967243 0.010371 0.006756 -0.007312
189.000000 -20.120301 0.085510 3.959931 0.010355 0.006756 -0.007320
190.000000 -20.109947 0.092266 3.952611 0.010338 0.006756 -0.007328
191.000000 -20.099609 0.099022 3.945283 0.027005 0.027687 -0.031696
192.000000 -20.072604 0.126708 3.913587 0.043598 0.048583 -0.056149
193.000000 -20.029005 0.175291 3.857438 0.056614 0.071417 -0.081051
194.000000 -19.972391 0.246708 3.776388 0.066869 0.095250 -0.106330
195.000000 -19.905522 0.341958 3.670058 0.075753 0.119373 -0.131867
196.000000 -19.829770 0.461331 3.538191 0.084699 0.143162 -0.157697
197.000000 -19.745070 0.604493 3.380493 0.095108 0.165947 -0.183866
198.000000 -19.649962 0.770439 3.196627 0.113730 0.187742 -0.190082
199.000000 -19.536233 0.958181 3.006545 0.132623 0.209575 -0.195183
200.000000 -19.403610 1.167756 2.811362 0.131365 0.230452 -0.194874
201.000000 -19.272245 1.398208 2.616488 0.130280 0.251341 -0.194820
202.000000 -19.141965 1.649549 2.421668 0.151202 0.271604 -0.197703
203.000000 -18.990763 1.921153 2.223964 0.153113 0.271299 -0.177271
204.000000 -18.837651 2.192452 2.046693 0.173410 0.292285 -0.179841
205.000000 -18.664241 2.484737 1.866852 0.175008 0.313069 -0.179272
206.000000 -18.489233 2.797806 1.687580 0.196318 0.333094 -0.180818
207.000000 -18.292915 3.130901 1.506762 0.218444 0.352213 -0.181988
208.000000 -18.074471 3.483113 1.324774 0.241303 0.348273 -0.164674
209.000000 -17.833168 3.831386 1.160100 0.264281 0.343731 -0.147661
210.000000 -17.568887 4.175117 1.012439 0.286559 0.337272 -0.130335
211.000000 -17.282328 4.512389 0.882104 0.303926 0.309698 -0.115506
212.000000 -16.978402 4.822087 0.766598 0.320626 0.281581 -0.100907
213.000000 -16.657776 5.103669 0.665691 0.335355 0.251695 -0.087660
214.000000 -16.322421 5.355364 0.578032 0.329539 0.226587 -0.073827
215.000000 -15.992882 5.581951 0.504205 0.323582 0.200930 -0.061039
216.000000 -15.669301 5.782881 0.443166 0.315835 0.175557 -0.048605
217.000000 -15.353466 5.958438 0.394561 0.288038 0.158157 -0.033730
218.000000 -15.065429 6.116595 0.360831 0.279227 0.133054 -0.021392
219.000000 -14.786202 6.249649 0.339439 0.269762 0.115612 -0.028725
220.000000 -14.516440 6.365261 0.310714 0.240985 0.099226 -0.014510
221.000000 -14.275455 6.464487 0.296205 0.212865 0.081536 -0.000534
222.000000 -14.062590 6.546023 0.295671 0.202826 0.065058 -0.009115
223.000000 -13.859764 6.611081 0.286556 0.191110 0.040153 0.001311
224.000000 -13.668654 6.651234 0.287867 0.180919 0.014327 0.011107
225.000000 -13.487735 6.665561 0.298974 0.171400 -0.002237 0.002183
226.000000 -13.316335 6.663323 0.301156 0.143047 -0.009739 -0.002069
227.000000 -13.173289 6.653585 0.299087 0.114584 -0.017054 -0.005866
228.000000 -13.058705 6.636531 0.293222 0.103384 -0.032600 -0.014560
229.000000 -12.955321 6.603931 0.278662 0.091899 -0.047837 -0.023435
230.000000 -12.863422 6.556094 0.255227 0.073620 -0.038721 -0.018924
231.000000 -12.789802 6.517373 0.236302 0.073577 -0.038729 -0.019092
232.000000 -12.716225 6.478644 0.217211 0.055330 -0.029764 -0.014177
233.000000 -12.660895 6.448880 0.203033 0.055298 -0.029772 -0.014303
234.000000 -12.605598 6.419108 0.188730 0.055265 -0.029780 -0.014429
235.000000 -12.550333 6.389328 0.174302 0.055232 -0.029789 -0.014554
236.000000 -12.495101 6.359539 0.159748 0.036574 -0.021370 -0.010225
237.000000 -12.458526 6.338169 0.149522 0.036551 -0.021378 -0.010308
238.000000 -12.421976 6.316790 0.139214 0.036527 -0.021387 -0.010391
239.000000 -12.385448 6.295404 0.128823 0.036504 -0.021395 -0.010474
240.000000 -12.348945 6.274009 0.118348 0.036480 -0.021403 -0.010557
241.000000 -12.312465 6.252606 0.107791 0.036456 -0.021411 -0.010640
242.000000 -12.276009 6.231195 0.097151 0.036431 -0.021419 -0.010723
243.000000 -12.239578 6.209776 0.086429 0.017819 -0.013097 -0.006026
244.000000 -12.221759 6.196679 0.080403 0.017806 -0.013105 -0.006066
245.000000 -12.203953 6.183575 0.074337 0.017792 -0.013113 -0.006106
246.000000 -12.186161 6.170462 0.068231 0.017778 -0.013121 -0.006147
247.000000 -12.168383 6.157341 0.062084 0.017764 -0.013129 -0.006187
248.000000 -12.150619 6.144213 0.055897 0.017750 -0.013137 -0.006227
249.000000 -12.132870 6.131076 0.049670 0.017735 -0.013145 -0.006268
250.000000 -12.115134 6.117931 0.043402 0.017721 -0.013153 -0.006308
251.000000 -12.097413 6.104779 0.037094 0.017707 -0.013161 -0.006348
252.000000 -12.079706 6.091618 0.030746 0.017692 -0.013169 -0.006389
253.000000 -12.062014 6.078449 0.024357 0.017678 -0.013177 -0.006429
254.000000 -12.044336 6.065273 0.017928 0.017663 -0.013184 -0.006469
255.000000 -12.026673 6.052088 0.011459 0.017648 -0.013192 -0.006510
256.000000 -12.009025 6.038896 0.004949 -0.001041 -0.004803 -0.002248
257.000000 -12.010066 6.034093 0.002701 -0.001046 -0.004810 -0.002246
258.000000 -12.011112 6.029283 0.000455 -0.001051 -0.004818 -0.002243
259.000000 -12.012163 6.024465 -0.001788 -0.001056 -0.004826 -0.002241
260.000000 -12.013219 6.019639 -0.004029 -0.001061 -0.004834 -0.002239
261.000000 -12.014281 6.014805 -0.006268 -0.001067 -0.004842 -0.002236
262.000000 -12.015347 6.009963 -0.008504 -0.001072 -0.004850 -0.002234
263.000000 -12.016419 6.005113 -0.010738 -0.001077 -0.004857 -0.002231
264.000000 -12.017496 6.000256 -0.012969 -0.001082 -0.004865 -0.002229
265.000000 -12.018577 5.995390 -0.015198 -0.001087 -0.004873 -0.002227
266.000000 -12.019664 5.990517 -0.017425 -0.001092 -0.004881 -0.002224
267.000000 -12.020756 5.985636 -0.019649 -0.001097 -0.004889 -0.002222
268.000000 -12.021853 5.980748 -0.021870 -0.001102 -0.004897 -0.002219
269.000000 -12.022955 5.975851 -0.024090 -0.001107 -0.004904 -0.002217
270.000000 -12.024063 5.970947 -0.026307 -0.001112 -0.004912 -0.002214
271.000000 -12.025175 5.966035 -0.028521 -0.001117 -0.004920 -0.002212
272.000000 -12.026292 5.961115 -0.030733 -0.001122 -0.004928 -0.002210
273.000000 -12.027415 5.956187 -0.032943 -0.001127 -0.004935 -0.002207
274.000000 -12.028542 5.951252 -0.035150 -0.001132 -0.004943 -0.002205
275.000000 -12.029674 5.946309 -0.037355 -0.001137 -0.004951 -0.002202
276.000000 -12.030812 5.941358 -0.039557 -0.001143 -0.004959 -0.002200
277.000000 -12.031954 5.936399 -0.041757 0.008335 -0.020808 -0.033381
278.000000 -12.023619 5.915591 -0.075138 0.017761 -0.036648 -0.064585
279.000000 -12.005858 5.878943 -0.139722 0.026518 -0.050569 -0.096885
280.000000 -11.979340 5.828374 -0.236607 0.034739 -0.062304 -0.130185
END Ephemeris